[{"OBJECT_NAME":"FENGYUN 1C DEB","OBJECT_ID":"1999-025DRU","EPOCH":"2026-02-27T22:04:17.952672","MEAN_MOTION":13.46821034,"ECCENTRICITY":0.0440473,"INCLINATION":98.5159,"RA_OF_ASC_NODE":120.9349,"ARG_OF_PERICENTER":65.1505,"MEAN_ANOMALY":299.4764,"EPHEMERIS_TYPE":0,"CLASSIFICATION_TYPE":"U","NORAD_CAT_ID":36147,"ELEMENT_SET_NO":999,"REV_AT_EPOCH":61036,"BSTAR":0.0010856,"MEAN_MOTION_DOT":1.156e-5,"MEAN_MOTION_DDOT":0},{"OBJECT_NAME":"FENGYUN 1C DEB","OBJECT_ID":"1999-025DRV","EPOCH":"2026-03-14T09:01:56.267616","MEAN_MOTION":13.86025303,"ECCENTRICITY":0.02765941,"INCLINATION":98.4298,"RA_OF_ASC_NODE":280.1104,"ARG_OF_PERICENTER":98.2882,"MEAN_ANOMALY":264.9737,"EPHEMERIS_TYPE":0,"CLASSIFICATION_TYPE":"U","NORAD_CAT_ID":36148,"ELEMENT_SET_NO":999,"REV_AT_EPOCH":91513,"BSTAR":0.0025969666,"MEAN_MOTION_DOT":4.001e-5,"MEAN_MOTION_DDOT":0},{"OBJECT_NAME":"FENGYUN 1C DEB","OBJECT_ID":"1999-025DRZ","EPOCH":"2026-03-12T21:54:39.178944","MEAN_MOTION":14.17691454,"ECCENTRICITY":0.00525915,"INCLINATION":98.7467,"RA_OF_ASC_NODE":115.3563,"ARG_OF_PERICENTER":314.2915,"MEAN_ANOMALY":45.3952,"EPHEMERIS_TYPE":0,"CLASSIFICATION_TYPE":"U","NORAD_CAT_ID":36152,"ELEMENT_SET_NO":999,"REV_AT_EPOCH":65434,"BSTAR":0.001038131,"MEAN_MOTION_DOT":2.099e-5,"MEAN_MOTION_DDOT":0},{"OBJECT_NAME":"FENGYUN 1C DEB","OBJECT_ID":"1999-025DSA","EPOCH":"2026-03-11T11:30:29.957760","MEAN_MOTION":14.51367554,"ECCENTRICITY":0.00331255,"INCLINATION":98.5851,"RA_OF_ASC_NODE":167.463,"ARG_OF_PERICENTER":140.6675,"MEAN_ANOMALY":219.6934,"EPHEMERIS_TYPE":0,"CLASSIFICATION_TYPE":"U","NORAD_CAT_ID":36153,"ELEMENT_SET_NO":999,"REV_AT_EPOCH":66250,"BSTAR":0.0020774665,"MEAN_MOTION_DOT":8.3e-5,"MEAN_MOTION_DDOT":0},{"OBJECT_NAME":"FENGYUN 1C DEB","OBJECT_ID":"1999-025DSH","EPOCH":"2026-02-21T07:45:16.815456","MEAN_MOTION":14.13297206,"ECCENTRICITY":0.01343198,"INCLINATION":98.141,"RA_OF_ASC_NODE":252.6397,"ARG_OF_PERICENTER":308.8659,"MEAN_ANOMALY":50.0593,"EPHEMERIS_TYPE":0,"CLASSIFICATION_TYPE":"U","NORAD_CAT_ID":36160,"ELEMENT_SET_NO":999,"REV_AT_EPOCH":61049,"BSTAR":0.00020349178,"MEAN_MOTION_DOT":3.76e-6,"MEAN_MOTION_DDOT":0},{"OBJECT_NAME":"FENGYUN 1C DEB","OBJECT_ID":"1999-025DSL","EPOCH":"2026-03-14T09:08:14.839584","MEAN_MOTION":14.62958579,"ECCENTRICITY":0.00355126,"INCLINATION":99.0805,"RA_OF_ASC_NODE":291.2727,"ARG_OF_PERICENTER":155.2001,"MEAN_ANOMALY":205.0915,"EPHEMERIS_TYPE":0,"CLASSIFICATION_TYPE":"U","NORAD_CAT_ID":36163,"ELEMENT_SET_NO":999,"REV_AT_EPOCH":90525,"BSTAR":0.0036867888,"MEAN_MOTION_DOT":0.00019045,"MEAN_MOTION_DDOT":0},{"OBJECT_NAME":"FENGYUN 1C DEB","OBJECT_ID":"1999-025DSQ","EPOCH":"2026-03-06T14:11:17.355840","MEAN_MOTION":14.50013226,"ECCENTRICITY":0.00698169,"INCLINATION":98.8124,"RA_OF_ASC_NODE":341.5425,"ARG_OF_PERICENTER":352.405,"MEAN_ANOMALY":7.608,"EPHEMERIS_TYPE":0,"CLASSIFICATION_TYPE":"U","NORAD_CAT_ID":36167,"ELEMENT_SET_NO":999,"REV_AT_EPOCH":68494,"BSTAR":0.0014938543,"MEAN_MOTION_DOT":5.923e-5,"MEAN_MOTION_DDOT":0},{"OBJECT_NAME":"FENGYUN 1C DEB","OBJECT_ID":"1999-025DSW","EPOCH":"2026-02-27T14:08:52.720512","MEAN_MOTION":14.25341326,"ECCENTRICITY":0.01462609,"INCLINATION":98.2237,"RA_OF_ASC_NODE":15.8966,"ARG_OF_PERICENTER":319.7593,"MEAN_ANOMALY":39.2833,"EPHEMERIS_TYPE":0,"CLASSIFICATION_TYPE":"U","NORAD_CAT_ID":36173,"ELEMENT_SET_NO":999,"REV_AT_EPOCH":60185,"BSTAR":0.00041952854,"MEAN_MOTION_DOT":1.063e-5,"MEAN_MOTION_DDOT":0},{"OBJECT_NAME":"FENGYUN 1C DEB","OBJECT_ID":"1999-025DTD","EPOCH":"2026-02-28T23:00:43.784640","MEAN_MOTION":14.20983269,"ECCENTRICITY":0.0211183,"INCLINATION":98.4446,"RA_OF_ASC_NODE":125.2406,"ARG_OF_PERICENTER":163.0548,"MEAN_ANOMALY":197.7826,"EPHEMERIS_TYPE":0,"CLASSIFICATION_TYPE":"U","NORAD_CAT_ID":36180,"ELEMENT_SET_NO":999,"REV_AT_EPOCH":71694,"BSTAR":0.0006547,"MEAN_MOTION_DOT":1.734e-5,"MEAN_MOTION_DDOT":0},{"OBJECT_NAME":"FENGYUN 1C DEB","OBJECT_ID":"1999-025DTF","EPOCH":"2026-03-14T13:28:06.698496","MEAN_MOTION":14.35637443,"ECCENTRICITY":0.00195227,"INCLINATION":99.0923,"RA_OF_ASC_NODE":10.958,"ARG_OF_PERICENTER":167.5676,"MEAN_ANOMALY":192.5993,"EPHEMERIS_TYPE":0,"CLASSIFICATION_TYPE":"U","NORAD_CAT_ID":36182,"ELEMENT_SET_NO":999,"REV_AT_EPOCH":89274,"BSTAR":0.0015778531,"MEAN_MOTION_DOT":4.515e-5,"MEAN_MOTION_DDOT":0},{"OBJECT_NAME":"FENGYUN 1C DEB","OBJECT_ID":"1999-025DTM","EPOCH":"2026-03-14T13:39:09.996480","MEAN_MOTION":14.63582818,"ECCENTRICITY":0.00437615,"INCLINATION":98.58,"RA_OF_ASC_NODE":182.5348,"ARG_OF_PERICENTER":22.4085,"MEAN_ANOMALY":337.9015,"EPHEMERIS_TYPE":0,"CLASSIFICATION_TYPE":"U","NORAD_CAT_ID":36188,"ELEMENT_SET_NO":999,"REV_AT_EPOCH":89394,"BSTAR":0.0031148288,"MEAN_MOTION_DOT":0.00016381,"MEAN_MOTION_DDOT":0},{"OBJECT_NAME":"FENGYUN 1C DEB","OBJECT_ID":"1999-025DTX","EPOCH":"2026-03-13T12:33:40.302432","MEAN_MOTION":14.08404419,"ECCENTRICITY":0.00970348,"INCLINATION":98.6132,"RA_OF_ASC_NODE":102.8158,"ARG_OF_PERICENTER":216.3322,"MEAN_ANOMALY":143.1235,"EPHEMERIS_TYPE":0,"CLASSIFICATION_TYPE":"U","NORAD_CAT_ID":36198,"ELEMENT_SET_NO":999,"REV_AT_EPOCH":64865,"BSTAR":0.0014854012,"MEAN_MOTION_DOT":2.615e-5,"MEAN_MOTION_DDOT":0},{"OBJECT_NAME":"FENGYUN 1C DEB","OBJECT_ID":"1999-025DTY","EPOCH":"2026-03-15T08:00:00.240768","MEAN_MOTION":14.29809896,"ECCENTRICITY":0.00924617,"INCLINATION":98.2838,"RA_OF_ASC_NODE":96.0229,"ARG_OF_PERICENTER":152.1462,"MEAN_ANOMALY":208.4716,"EPHEMERIS_TYPE":0,"CLASSIFICATION_TYPE":"U","NORAD_CAT_ID":36199,"ELEMENT_SET_NO":999,"REV_AT_EPOCH":66303,"BSTAR":0.00023740336,"MEAN_MOTION_DOT":5.99e-6,"MEAN_MOTION_DDOT":0},{"OBJECT_NAME":"FENGYUN 1C DEB","OBJECT_ID":"1999-025DTZ","EPOCH":"2026-03-13T04:38:58.994304","MEAN_MOTION":14.63072572,"ECCENTRICITY":0.00333503,"INCLINATION":99.3785,"RA_OF_ASC_NODE":163.1233,"ARG_OF_PERICENTER":101.6514,"MEAN_ANOMALY":258.843,"EPHEMERIS_TYPE":0,"CLASSIFICATION_TYPE":"U","NORAD_CAT_ID":36200,"ELEMENT_SET_NO":999,"REV_AT_EPOCH":74681,"BSTAR":0.0035581871,"MEAN_MOTION_DOT":0.00018402,"MEAN_MOTION_DDOT":0},{"OBJECT_NAME":"FENGYUN 1C DEB","OBJECT_ID":"1999-025DUD","EPOCH":"2026-03-14T00:59:31.359552","MEAN_MOTION":14.35279577,"ECCENTRICITY":0.00185034,"INCLINATION":99.2858,"RA_OF_ASC_NODE":181.981,"ARG_OF_PERICENTER":252.3804,"MEAN_ANOMALY":107.5358,"EPHEMERIS_TYPE":0,"CLASSIFICATION_TYPE":"U","NORAD_CAT_ID":36204,"ELEMENT_SET_NO":999,"REV_AT_EPOCH":95737,"BSTAR":0.0011841049,"MEAN_MOTION_DOT":3.349e-5,"MEAN_MOTION_DDOT":0},{"OBJECT_NAME":"FENGYUN 1C DEB","OBJECT_ID":"1999-025DUF","EPOCH":"2026-03-15T07:25:25.629888","MEAN_MOTION":14.21871752,"ECCENTRICITY":0.00317225,"INCLINATION":98.4721,"RA_OF_ASC_NODE":98.8198,"ARG_OF_PERICENTER":108.4124,"MEAN_ANOMALY":252.0508,"EPHEMERIS_TYPE":0,"CLASSIFICATION_TYPE":"U","NORAD_CAT_ID":36206,"ELEMENT_SET_NO":999,"REV_AT_EPOCH":65736,"BSTAR":0.00058460509,"MEAN_MOTION_DOT":1.254e-5,"MEAN_MOTION_DDOT":0}]
