FENGYUN 1C DEB          
1 36147U 99025DRU 26058.91965223  .00001156  00000+0  10856-2 0  9998
2 36147  98.5159 120.9349 0440473  65.1505 299.4764 13.46821034610361
FENGYUN 1C DEB          
1 36148U 99025DRV 26073.37634569  .00004001  00000+0  25970-2 0  9997
2 36148  98.4298 280.1104 0276594  98.2882 264.9737 13.86025303915138
FENGYUN 1C DEB          
1 36152U 99025DRZ 26071.91295346  .00002099  00000+0  10381-2 0  9991
2 36152  98.7467 115.3563 0052591 314.2915  45.3952 14.17691454654343
FENGYUN 1C DEB          
1 36153U 99025DSA 26070.47951340  .00008300  00000+0  20775-2 0  9994
2 36153  98.5851 167.4630 0033125 140.6675 219.6934 14.51367554662500
FENGYUN 1C DEB          
1 36160U 99025DSH 26052.32311129  .00000376  00000+0  20349-3 0  9994
2 36160  98.1410 252.6397 0134319 308.8659  50.0593 14.13297206610492
FENGYUN 1C DEB          
1 36163U 99025DSL 26073.38072731  .00019045  00000+0  36868-2 0  9994
2 36163  99.0805 291.2727 0035512 155.2001 205.0915 14.62958579905251
FENGYUN 1C DEB          
1 36167U 99025DSQ 26065.59117310  .00005923  00000+0  14939-2 0  9990
2 36167  98.8124 341.5425 0069816 352.4050   7.6080 14.50013226684946
FENGYUN 1C DEB          
1 36173U 99025DSW 26058.58949908  .00001063  00000+0  41953-3 0  9992
2 36173  98.2237  15.8966 0146260 319.7593  39.2833 14.25341326601853
FENGYUN 1C DEB          
1 36180U 99025DTD 26059.95884010  .00001734  00000+0  65470-3 0  9999
2 36180  98.4446 125.2406 0211183 163.0548 197.7826 14.20983269716949
FENGYUN 1C DEB          
1 36182U 99025DTF 26073.56118864  .00004515  00000+0  15779-2 0  9997
2 36182  99.0923  10.9580 0019522 167.5676 192.5993 14.35637443892742
FENGYUN 1C DEB          
1 36188U 99025DTM 26073.56886570  .00016381  00000+0  31148-2 0  9991
2 36188  98.5800 182.5348 0043761  22.4085 337.9015 14.63582818893948
FENGYUN 1C DEB          
1 36198U 99025DTX 26072.52338313  .00002615  00000+0  14854-2 0  9994
2 36198  98.6132 102.8158 0097034 216.3322 143.1235 14.08404419648658
FENGYUN 1C DEB          
1 36199U 99025DTY 26074.33333612  .00000599  00000+0  23740-3 0  9997
2 36199  98.2838  96.0229 0092461 152.1462 208.4716 14.29809896663031
FENGYUN 1C DEB          
1 36200U 99025DTZ 26072.19373836  .00018402  00000+0  35582-2 0  9992
2 36200  99.3785 163.1233 0033350 101.6514 258.8430 14.63072572746818
FENGYUN 1C DEB          
1 36204U 99025DUD 26073.04133518  .00003349  00000+0  11841-2 0  9998
2 36204  99.2858 181.9810 0018503 252.3804 107.5358 14.35279577957377
FENGYUN 1C DEB          
1 36206U 99025DUF 26074.30932442  .00001254  00000+0  58461-3 0  9996
2 36206  98.4721  98.8198 0031722 108.4124 252.0508 14.21871752657365
